NAVSTAR 77 (USA 289)    
1 43873U 18109A   23316.00790440  .00000091  00000+0  00000+0 0  9991
2 43873  55.2180 129.6511 0027170 189.7425  22.5433  2.00571205 36051
